{
    "links": {
        "self": "http://www.neowsapp.com/rest/v1/neo/3682496?api_key=iIulBulltgU6a56xZRHN4H3l9WmuAYTsLGpBGhQ2"
    },
    "id": "3682496",
    "neo_reference_id": "3682496",
    "name": "(2014 QP33)",
    "designation": "2014 QP33",
    "nasa_jpl_url": "http://ssd.jpl.nasa.gov/sbdb.cgi?sstr=3682496",
    "absolute_magnitude_h": 24.3,
    "estimated_diameter": {
        "kilometers": {
            "estimated_diameter_min": 0.0366906138,
            "estimated_diameter_max": 0.0820427065
        },
        "meters": {
            "estimated_diameter_min": 36.6906137531,
            "estimated_diameter_max": 82.0427064882
        },
        "miles": {
            "estimated_diameter_min": 0.0227984834,
            "estimated_diameter_max": 0.0509789586
        },
        "feet": {
            "estimated_diameter_min": 120.3760332259,
            "estimated_diameter_max": 269.1689931548
        }
    },
    "is_potentially_hazardous_asteroid": false,
    "close_approach_data": [
        {
            "close_approach_date": "2014-09-05",
            "close_approach_date_full": "2014-Sep-05 04:37",
            "epoch_date_close_approach": 1409891820000,
            "relative_velocity": {
                "kilometers_per_second": "8.2785349932",
                "kilometers_per_hour": "29802.7259756074",
                "miles_per_hour": "18518.2549263434"
            },
            "miss_distance": {
                "astronomical": "0.0943738996",
                "lunar": "36.7114469444",
                "kilometers": "14118134.363753852",
                "miles": "8772601.9026810776"
            },
            "orbiting_body": "Earth"
        }
    ],
    "orbital_data": {
        "orbit_id": "3",
        "orbit_determination_date": "2017-04-06 08:39:15",
        "first_observation_date": "2014-08-22",
        "last_observation_date": "2014-08-24",
        "data_arc_in_days": 2,
        "observations_used": 9,
        "orbit_uncertainty": "9",
        "minimum_orbit_intersection": ".0940691",
        "jupiter_tisserand_invariant": "4.515",
        "epoch_osculation": "2456892.5",
        "eccentricity": ".3011019149411126",
        "semi_major_axis": "1.476701516761211",
        "inclination": "12.6001631080166",
        "ascending_node_longitude": "149.5316582630579",
        "orbital_period": "655.4468917557914",
        "perihelion_distance": "1.032063862267965",
        "perihelion_argument": "231.6757523239841",
        "aphelion_distance": "1.921339171254458",
        "perihelion_time": "2456942.485172283209",
        "mean_anomaly": "332.5459648244701",
        "mean_motion": ".5492435840768775",
        "equinox": "J2000",
        "orbit_class": {
            "orbit_class_type": "AMO",
            "orbit_class_description": "Near-Earth asteroid orbits similar to that of 1221 Amor",
            "orbit_class_range": "1.017 AU < q (perihelion) < 1.3 AU"
        }
    },
    "is_sentry_object": false
}